start=new Date('2022-05-02T00:00:00.000Z').valueOf();
sats=[{"ELEMENT_SET_NO":"999","PERIOD":"95.593","NORAD_CAT_ID":"47651","EPOCH":"2022-05-01T18:37:35.249088","CLASSIFICATION_TYPE":"U","RA_OF_ASC_NODE":"271.9987","BSTAR":"-0.00002482200000","ARG_OF_PERICENTER":"67.8229","TIME_SYSTEM":"UTC","APOAPSIS":"548.350","RCS_SIZE":"LARGE","SEMIMAJOR_AXIS":"6925.395","MEAN_MOTION":"15.06384795","MEAN_ELEMENT_THEORY":"SGP4","MEAN_MOTION_DOT":"-0.00000651","DECAY_DATE":null,"TLE_LINE1":"1 47651U 21012AH  22121.77610242 -.00000651  00000-0 -24822-4 0  9992","LAUNCH_DATE":"2021-02-16","PERIAPSIS":"546.171","TLE_LINE2":"2 47651  53.0557 271.9987 0001573  67.8229 292.2926 15.06384795 67781","SITE":"AFETR","EPHEMERIS_TYPE":"0","COUNTRY_CODE":"US","MEAN_MOTION_DDOT":"0.0000000000000","OBJECT_NAME":"STARLINK-2035","INCLINATION":"53.0557","GP_ID":"202473922","OBJECT_ID":"2021-012AH","REV_AT_EPOCH":"6778","ECCENTRICITY":"0.00015730","CENTER_NAME":"EARTH","OBJECT_TYPE":"PAYLOAD","MEAN_ANOMALY":"292.2926","FILE":"3424759","REF_FRAME":"TEME"},{"MEAN_MOTION_DOT":"0.00000467","TLE_LINE1":"1 47652U 21012AJ  22121.80284386  .00000467  00000-0  50237-4 0  9995","DECAY_DATE":null,"LAUNCH_DATE":"2021-02-16","COUNTRY_CODE":"US","EPHEMERIS_TYPE":"0","SITE":"AFETR","PERIAPSIS":"546.123","TLE_LINE2":"2 47652  53.0533 271.8747 0001632  55.1546 304.9596 15.06387041 67788","INCLINATION":"53.0533","OBJECT_NAME":"STARLINK-2036","MEAN_MOTION_DDOT":"0.0000000000000","OBJECT_ID":"2021-012AJ","GP_ID":"202474165","MEAN_ANOMALY":"304.9596","OBJECT_TYPE":"PAYLOAD","CENTER_NAME":"EARTH","ECCENTRICITY":"0.00016320","REV_AT_EPOCH":"6778","REF_FRAME":"TEME","FILE":"3424759","NORAD_CAT_ID":"47652","PERIOD":"95.593","ELEMENT_SET_NO":"999","CLASSIFICATION_TYPE":"U","EPOCH":"2022-05-01T19:16:05.709504","BSTAR":"0.00005023700000","RA_OF_ASC_NODE":"271.8747","RCS_SIZE":"LARGE","APOAPSIS":"548.383","TIME_SYSTEM":"UTC","ARG_OF_PERICENTER":"55.1546","SEMIMAJOR_AXIS":"6925.388","MEAN_ELEMENT_THEORY":"SGP4","MEAN_MOTION":"15.06387041"},{"ARG_OF_PERICENTER":"48.7289","TIME_SYSTEM":"UTC","RCS_SIZE":"LARGE","APOAPSIS":"548.438","BSTAR":"0.00006527900000","RA_OF_ASC_NODE":"252.1817","MEAN_ELEMENT_THEORY":"SGP4","MEAN_MOTION":"15.06391784","SEMIMAJOR_AXIS":"6925.374","PERIOD":"95.593","ELEMENT_SET_NO":"999","NORAD_CAT_ID":"47653","EPOCH":"2022-05-01T17:32:35.565216","CLASSIFICATION_TYPE":"U","GP_ID":"202472923","OBJECT_ID":"2021-012AK","OBJECT_NAME":"STARLINK-2037","MEAN_MOTION_DDOT":"0.0000000000000","INCLINATION":"53.0552","FILE":"3424759","REF_FRAME":"TEME","ECCENTRICITY":"0.00017320","REV_AT_EPOCH":"6804","OBJECT_TYPE":"PAYLOAD","MEAN_ANOMALY":"311.3849","CENTER_NAME":"EARTH","TLE_LINE1":"1 47653U 21012AK  22121.73096719  .00000691  00000-0  65279-4 0  9990","DECAY_DATE":null,"MEAN_MOTION_DOT":"0.00000691","SITE":"AFETR","TLE_LINE2":"2 47653  53.0552 252.1817 0001732  48.7289 311.3849 15.06391784 68045","PERIAPSIS":"546.039","COUNTRY_CODE":"US","EPHEMERIS_TYPE":"0","LAUNCH_DATE":"2021-02-16"},{"PERIOD":"95.593","ELEMENT_SET_NO":"999","NORAD_CAT_ID":"47654","EPOCH":"2022-05-01T19:21:24.535008","CLASSIFICATION_TYPE":"U","BSTAR":"0.00011400000000","RA_OF_ASC_NODE":"271.8503","TIME_SYSTEM":"UTC","ARG_OF_PERICENTER":"61.3970","RCS_SIZE":"LARGE","APOAPSIS":"548.385","SEMIMAJOR_AXIS":"6925.399","MEAN_ELEMENT_THEORY":"SGP4","MEAN_MOTION":"15.06383520","MEAN_MOTION_DOT":"0.00001416","DECAY_DATE":null,"TLE_LINE1":"1 47654U 21012AL  22121.80653397  .00001416  00000-0  11400-3 0  9992","LAUNCH_DATE":"2021-02-16","SITE":"AFETR","PERIAPSIS":"546.144","TLE_LINE2":"2 47654  53.0560 271.8503 0001618  61.3970 298.7182 15.06383520 67783","EPHEMERIS_TYPE":"0","COUNTRY_CODE":"US","OBJECT_NAME":"STARLINK-2038","MEAN_MOTION_DDOT":"0.0000000000000","INCLINATION":"53.0560","GP_ID":"202472673","OBJECT_ID":"2021-012AL","ECCENTRICITY":"0.00016180","REV_AT_EPOCH":"6778","OBJECT_TYPE":"PAYLOAD","MEAN_ANOMALY":"298.7182","CENTER_NAME":"EARTH","FILE":"3424759","REF_FRAME":"TEME"},{"FILE":"3424759","REF_FRAME":"TEME","ECCENTRICITY":"0.00017540","REV_AT_EPOCH":"6778","OBJECT_TYPE":"PAYLOAD","MEAN_ANOMALY":"296.8970","CENTER_NAME":"EARTH","GP_ID":"202473423","OBJECT_ID":"2021-012AM","OBJECT_NAME":"STARLINK-2039","MEAN_MOTION_DDOT":"0.0000000000000","INCLINATION":"53.0551","SITE":"AFETR","PERIAPSIS":"546.001","TLE_LINE2":"2 47655  53.0551 271.8896 0001754  63.2198 296.8970 15.06399337 67780","EPHEMERIS_TYPE":"0","COUNTRY_CODE":"US","LAUNCH_DATE":"2021-02-16","TLE_LINE1":"1 47655U 21012AM  22121.79915284  .00004995  00000-0  35398-3 0  9994","DECAY_DATE":null,"MEAN_MOTION_DOT":"0.00004995","MEAN_ELEMENT_THEORY":"SGP4","MEAN_MOTION":"15.06399337","SEMIMAJOR_AXIS":"6925.351","TIME_SYSTEM":"UTC","ARG_OF_PERICENTER":"63.2198","RCS_SIZE":"LARGE","APOAPSIS":"548.430","BSTAR":"0.00035398000000","RA_OF_ASC_NODE":"271.8896","EPOCH":"2022-05-01T19:10:46.805376","CLASSIFICATION_TYPE":"U","PERIOD":"95.592","ELEMENT_SET_NO":"999","NORAD_CAT_ID":"47655"},{"MEAN_ANOMALY":"323.3656","OBJECT_TYPE":"PAYLOAD","CENTER_NAME":"EARTH","ECCENTRICITY":"0.00023710","REV_AT_EPOCH":"6806","REF_FRAME":"TEME","FILE":"3424759","INCLINATION":"53.0561","OBJECT_NAME":"STARLINK-2040","MEAN_MOTION_DDOT":"0.0000000000000","OBJECT_ID":"2021-012AN","GP_ID":"202473666","LAUNCH_DATE":"2021-02-16","COUNTRY_CODE":"US","EPHEMERIS_TYPE":"0","SITE":"AFETR","TLE_LINE2":"2 47656  53.0561 251.8145 0002371  36.7495 323.3656 15.06400475 68063","PERIAPSIS":"545.570","MEAN_MOTION_DOT":"-0.00000658","DECAY_DATE":null,"TLE_LINE1":"1 47656U 21012AN  22121.81574160 -.00000658  00000-0 -25229-4 0  9999","SEMIMAJOR_AXIS":"6925.347","MEAN_ELEMENT_THEORY":"SGP4","MEAN_MOTION":"15.06400475","BSTAR":"-0.00002522900000","RA_OF_ASC_NODE":"251.8145","RCS_SIZE":"LARGE","APOAPSIS":"548.854","ARG_OF_PERICENTER":"36.7495","TIME_SYSTEM":"UTC","CLASSIFICATION_TYPE":"U","EPOCH":"2022-05-01T19:34:40.074240","NORAD_CAT_ID":"47656","PERIOD":"95.592","ELEMENT_SET_NO":"999"},{"ELEMENT_SET_NO":"999","PERIOD":"95.593","NORAD_CAT_ID":"47657","EPOCH":"2022-05-01T19:42:38.199744","CLASSIFICATION_TYPE":"U","RA_OF_ASC_NODE":"271.7955","BSTAR":"0.00022574000000","TIME_SYSTEM":"UTC","ARG_OF_PERICENTER":"77.1691","APOAPSIS":"548.316","RCS_SIZE":"LARGE","SEMIMAJOR_AXIS":"6925.369","MEAN_MOTION":"15.06393310","MEAN_ELEMENT_THEORY":"SGP4","MEAN_MOTION_DOT":"0.00003082","TLE_LINE1":"1 47657U 21012AP  22121.82127546  .00003082  00000-0  22574-3 0  9994","DECAY_DATE":null,"LAUNCH_DATE":"2021-02-16","TLE_LINE2":"2 47657  53.0552 271.7955 0001562  77.1691 282.9472 15.06393310 67785","PERIAPSIS":"546.152","SITE":"AFETR","COUNTRY_CODE":"US","EPHEMERIS_TYPE":"0","MEAN_MOTION_DDOT":"0.0000000000000","OBJECT_NAME":"STARLINK-2041","INCLINATION":"53.0552","GP_ID":"202472423","OBJECT_ID":"2021-012AP","REV_AT_EPOCH":"6778","ECCENTRICITY":"0.00015620","CENTER_NAME":"EARTH","MEAN_ANOMALY":"282.9472","OBJECT_TYPE":"PAYLOAD","FILE":"3424759","REF_FRAME":"TEME"},{"TLE_LINE1":"1 47658U 21012AQ  22121.68110432  .00012425  00000-0  84937-3 0  9997","DECAY_DATE":null,"MEAN_MOTION_DOT":"0.00012425","TLE_LINE2":"2 47658  53.0539 272.4155 0000780  55.5582 304.5481 15.06494736 67786","PERIAPSIS":"546.383","SITE":"AFETR","EPHEMERIS_TYPE":"0","COUNTRY_CODE":"US","LAUNCH_DATE":"2021-02-16","GP_ID":"202473174","OBJECT_ID":"2021-012AQ","MEAN_MOTION_DDOT":"0.0000000000000","OBJECT_NAME":"STARLINK-2042","INCLINATION":"53.0539","FILE":"3424759","REF_FRAME":"TEME","REV_AT_EPOCH":"6778","ECCENTRICITY":"0.00007800","CENTER_NAME":"EARTH","MEAN_ANOMALY":"304.5481","OBJECT_TYPE":"PAYLOAD","ELEMENT_SET_NO":"999","PERIOD":"95.586","NORAD_CAT_ID":"47658","EPOCH":"2022-05-01T16:20:47.413248","CLASSIFICATION_TYPE":"U","ARG_OF_PERICENTER":"55.5582","TIME_SYSTEM":"UTC","APOAPSIS":"547.463","RCS_SIZE":"LARGE","RA_OF_ASC_NODE":"272.4155","BSTAR":"0.00084937000000","MEAN_MOTION":"15.06494736","MEAN_ELEMENT_THEORY":"SGP4","SEMIMAJOR_AXIS":"6925.058"},{"EPOCH":"2022-05-01T22:00:01.999584","CLASSIFICATION_TYPE":"U","PERIOD":"95.594","ELEMENT_SET_NO":"999","NORAD_CAT_ID":"47659","MEAN_ELEMENT_THEORY":"SGP4","MEAN_MOTION":"15.06368959","SEMIMAJOR_AXIS":"6925.444","ARG_OF_PERICENTER":"58.7480","TIME_SYSTEM":"UTC","RCS_SIZE":"LARGE","APOAPSIS":"548.302","BSTAR":"0.00300140000000","RA_OF_ASC_NODE":"151.3606","SITE":"AFETR","PERIAPSIS":"546.315","TLE_LINE2":"2 47659  53.0546 151.3606 0001435  58.7480 359.0544 15.06368959  3615","COUNTRY_CODE":"US","EPHEMERIS_TYPE":"0","LAUNCH_DATE":"2021-02-16","TLE_LINE1":"1 47659U 21012AR  22121.91668981  .00044671  00000-0  30014-2 0  9995","DECAY_DATE":null,"MEAN_MOTION_DOT":"0.00044671","FILE":"3424759","REF_FRAME":"TEME","ECCENTRICITY":"0.00014350","REV_AT_EPOCH":"361","OBJECT_TYPE":"PAYLOAD","MEAN_ANOMALY":"359.0544","CENTER_NAME":"EARTH","GP_ID":"202473923","OBJECT_ID":"2021-012AR","OBJECT_NAME":"STARLINK-2043","MEAN_MOTION_DDOT":"0.0000000000000","INCLINATION":"53.0546"},{"SITE":"AFETR","PERIAPSIS":"545.828","TLE_LINE2":"2 47660  53.0538 141.3540 0002109  40.0185 237.9505 15.06375575  3612","EPHEMERIS_TYPE":"0","COUNTRY_CODE":"US","LAUNCH_DATE":"2021-02-16","DECAY_DATE":null,"TLE_LINE1":"1 47660U 21012AS  22121.91668981  .00046838  00000-0  31445-2 0  9993","MEAN_MOTION_DOT":"0.00046838","FILE":"3424759","REF_FRAME":"TEME","ECCENTRICITY":"0.00021090","REV_AT_EPOCH":"361","OBJECT_TYPE":"PAYLOAD","MEAN_ANOMALY":"237.9505","CENTER_NAME":"EARTH","GP_ID":"202474166","OBJECT_ID":"2021-012AS","OBJECT_NAME":"STARLINK-2044","MEAN_MOTION_DDOT":"0.0000000000000","INCLINATION":"53.0538","EPOCH":"2022-05-01T22:00:01.999584","CLASSIFICATION_TYPE":"U","PERIOD":"95.594","ELEMENT_SET_NO":"999","NORAD_CAT_ID":"47660","MEAN_ELEMENT_THEORY":"SGP4","MEAN_MOTION":"15.06375575","SEMIMAJOR_AXIS":"6925.423","ARG_OF_PERICENTER":"40.0185","TIME_SYSTEM":"UTC","RCS_SIZE":"LARGE","APOAPSIS":"548.749","BSTAR":"0.00314450000000","RA_OF_ASC_NODE":"141.3540"}];
